KUIPER-00167            
1 65780U 25217U   25311.83336806 -.00079552  00000+0 -26225-2 0  9990
2 65780  51.8709 233.5212 0006996 228.0774   9.3240 15.31106087  5797
KUIPER-00168            
1 65781U 25217V   25311.79750991  .00055515  00000+0  14579-2 0  9991
2 65781  51.8725 233.0644 0004099 128.3890 231.7465 15.38075008  6676
KUIPER-00169            
1 65782U 25217W   25311.81884697  .00054075  00000+0  14491-2 0  9999
2 65782  51.8722 233.2000 0002479 186.0860 174.0097 15.37466017  6673
KUIPER-00170            
1 65783U 25217X   25311.38973402  .00054324  00000+0  15097-2 0  9995
2 65783  51.8685 235.5571 0004887 237.3270 122.7246 15.36327118  6606
KUIPER-00171            
1 65784U 25217Y   25311.83336806  .01324931  00000+0  18513-1 0  9997
2 65784  51.8610 232.1682 0007134 228.7621 321.5207 15.53435661  5318
KUIPER-00172            
1 65785U 25217Z   25311.83336806  .00051721  00000+0  13721-2 0  9998
2 65785  51.8716 232.9970 0002699 172.3951 334.1176 15.37796259  5898
KUIPER-00173            
1 65786U 25217AA  25311.81327257  .00061054  00000+0  16248-2 0  9994
2 65786  51.8704 233.1661 0003244 149.1346 210.9832 15.37624165  6676
KUIPER-00174            
1 65787U 25217AB  25311.80107671  .00055616  00000+0  14629-2 0  9998
2 65787  51.8716 233.0852 0004013 140.5473 219.5807 15.38024056  6673
